1 43466U 98067NP  19149.04457000  .00016671  00000-0  16837-3 0  9996
2 43466  51.6375  79.1739 0002012  71.8682 288.2533 15.65475768 59688